{
  "type": "FeatureCollection",
  "features": [
    {
      "type": "Feature",
      "properties": {
        "type": "pond",
        "elevation_m": 271.99999999999994
      },
      "geometry": {
        "type": "Point",
        "coordinates": [
          81.28976931243946,
          21.25162985820851
        ]
      }
    },
    {
      "type": "Feature",
      "properties": {
        "type": "catchment"
      },
      "geometry": {
        "type": "Polygon",
        "coordinates": [
          [
            [
              81.29029305974804,
              21.251390154751856
            ],
            [
              81.29029337162012,
              21.251549355939034
            ],
            [
              81.29008368568896,
              21.251549716803922
            ],
            [
              81.29008368568894,
              21.251549716803922
            ],
            [
              81.28987399975335,
              21.251550077408066
            ],
            [
              81.28966431381335,
              21.251550437751458
            ],
            [
              81.28966431381335,
              21.251550437751458
            ],
            [
              81.28945462786892,
              21.251550797834106
            ],
            [
              81.28945493884287,
              21.251709999030098
            ],
            [
              81.28945493884287,
              21.251709999030105
            ],
            [
              81.28945524981967,
              21.251869200223087
            ],
            [
              81.28966493621463,
              21.25186884013453
            ],
            [
              81.28966493621463,
              21.25186884013453
            ],
            [
              81.28987462260517,
              21.251868479785227
            ],
            [
              81.2900843089913,
              21.25186811917517
            ],
            [
              81.29008462064682,
              21.25202732035628
            ],
            [
              81.29029430725382,
              21.252026959482514
            ],
            [
              81.29029461913751,
              21.252186160657654
            ],
            [
              81.29050430596536,
              21.25218579952017
            ],
            [
              81.29050461807722,
              21.252345000689346
            ],
            [
              81.2907143051259,
              21.252344639288147
            ],
            [
              81.29071461746595,
              21.252503840451354
            ],
            [
              81.29092430473551,
              21.252503478786423
            ],
            [
              81.29092461730373,
              21.252662679943654
            ],
            [
              81.29113430479413,
              21.252662318014995
            ],
            [
              81.29113461759054,
              21.252821519166247
            ],
            [
              81.2913443053018,
              21.252821156973862
            ],
            [
              81.29134461832639,
              21.252980358119142
            ],
            [
              81.2915543062585,
              21.25297999566302
            ],
            [
              81.2915546195113,
              21.25313919680231
            ],
            [
              81.29176430766425,
              21.253138834082446
            ],
            [
              81.29176399418616,
              21.25297963294613
            ],
            [
              81.29176399418616,
              21.25297963294612
            ],
            [
              81.291763680711,
              21.252820431806796
            ],
            [
              81.29176336723873,
              21.252661230664458
            ],
            [
              81.29176336723873,
              21.252661230664458
            ],
            [
              81.2917630537694,
              21.252502029519114
            ],
            [
              81.29176274030296,
              21.25234282837076
            ],
            [
              81.29176274030296,
              21.25234282837076
            ],
            [
              81.29176242683945,
              21.252183627219395
            ],
            [
              81.29197211363626,
              21.25218326425662
            ],
            [
              81.29197179995037,
              21.252024063105228
            ],
            [
              81.29218148651749,
              21.252023699884674
            ],
            [
              81.29218117260926,
              21.251864498733248
            ],
            [
              81.29218085870394,
              21.251705297578823
            ],
            [
              81.29218085870394,
              21.25170529757882
            ],
            [
              81.29218054480154,
              21.25154609642138
            ],
            [
              81.29218023090206,
              21.25138689526093
            ],
            [
              81.29218023090206,
              21.251386895260925
            ],
            [
              81.29217991700548,
              21.251227694097473
            ],
            [
              81.29197023156472,
              21.251228057303134
            ],
            [
              81.29196991789634,
              21.25106885613369
            ],
            [
              81.29176023267637,
              21.25106921907563
            ],
            [
              81.2917605461195,
              21.251228420248054
            ],
            [
              81.29155086066986,
              21.251228782932227
            ],
            [
              81.29155086066986,
              21.251228782932227
            ],
            [
              81.29134117521576,
              21.25122914535566
            ],
            [
              81.29113148975723,
              21.251229507518346
            ],
            [
              81.29113148975723,
              21.251229507518346
            ],
            [
              81.29092180429426,
              21.251229869420293
            ],
            [
              81.29092180429426,
              21.251229869420293
            ],
            [
              81.29071211882689,
              21.2512302310615
            ],
            [
              81.29050243335506,
              21.25123059244195
            ],
            [
              81.29050274544953,
              21.251389793629173
            ],
            [
              81.29029305974804,
              21.251390154751856
            ]
          ]
        ]
      }
    }
  ]
}